{
  "type": "FeatureCollection",
  "features": [
    {
      "type": "Feature",
      "properties": {
        "norad_id": 28051,
        "name": "IRS-P6 (RESOURCESAT-1)",
        "group": "resource",
        "lat": 42.90092647461982,
        "lon": 17.2755321980922,
        "alt_km": 804.8251185935669,
        "timestamp": "2025-12-10T11:33:53.047669+00:00",
        "meta_object_name": "IRS-P6 (RESOURCESAT-1)",
        "meta_object_id": "2003-046A",
        "meta_epoch": "2025-12-10T05:01:49.260288",
        "meta_mean_motion": 14.36072917,
        "meta_eccentricity": 0.0063989,
        "meta_inclination": 98.2176,
        "meta_ra_of_asc_node": 24.7335,
        "meta_arg_of_pericenter": 188.2889,
        "meta_mean_anomaly": 248.9191,
        "meta_ephemeris_type": 0,
        "meta_classification_type": "U",
        "meta_norad_cat_id": 28051,
        "meta_element_set_no": 999,
        "meta_rev_at_epoch": 15340,
        "meta_bstar": 8.9827e-05,
        "meta_mean_motion_dot": 2.26e-06,
        "meta_mean_motion_ddot": 0,
        "tle_line1": "1 28051U 03046A   25344.20959792  .00000226  00000+0  89827-4 0  9997",
        "tle_line2": "2 28051  98.2176  24.7335 0063989 188.2889 248.9191 14.36072917153401"
      },
      "geometry": {
        "type": "Point",
        "coordinates": [
          17.2755321980922,
          42.90092647461982
        ]
      }
    },
    {
      "type": "Feature",
      "properties": {
        "norad_id": 28220,
        "name": "SHIYAN-1 (SY-1)",
        "group": "resource",
        "lat": -69.13875301833049,
        "lon": -155.46328302167143,
        "alt_km": 488.53202793702985,
        "timestamp": "2025-12-10T11:33:53.047679+00:00",
        "meta_object_name": "SHIYAN-1 (SY-1)",
        "meta_object_id": "2004-012A",
        "meta_epoch": "2025-12-10T04:11:03.635232",
        "meta_mean_motion": 15.28033489,
        "meta_eccentricity": 0.0005788,
        "meta_inclination": 97.8933,
        "meta_ra_of_asc_node": 45.561,
        "meta_arg_of_pericenter": 335.8258,
        "meta_mean_anomaly": 24.2708,
        "meta_ephemeris_type": 0,
        "meta_classification_type": "U",
        "meta_norad_cat_id": 28220,
        "meta_element_set_no": 999,
        "meta_rev_at_epoch": 18217,
        "meta_bstar": 0.00067493,
        "meta_mean_motion_dot": 0.00018409,
        "meta_mean_motion_ddot": 0,
        "tle_line1": "1 28220U 04012A   25344.17434763  .00018409  00000+0  67493-3 0  9997",
        "tle_line2": "2 28220  97.8933  45.5610 0005788 335.8258  24.2708 15.28033489182173"
      },
      "geometry": {
        "type": "Point",
        "coordinates": [
          -155.46328302167143,
          -69.13875301833049
        ]
      }
    },
    {
      "type": "Feature",
      "properties": {
        "norad_id": 28376,
        "name": "AURA",
        "group": "resource",
        "lat": 69.35179595385371,
        "lon": 137.54345525249101,
        "alt_km": 682.5931695934378,
        "timestamp": "2025-12-10T11:33:53.047690+00:00",
        "meta_object_name": "AURA",
        "meta_object_id": "2004-026A",
        "meta_epoch": "2025-12-10T02:50:57.217920",
        "meta_mean_motion": 14.60936441,
        "meta_eccentricity": 0.0001196,
        "meta_inclination": 98.3182,
        "meta_ra_of_asc_node": 294.3332,
        "meta_arg_of_pericenter": 94.072,
        "meta_mean_anomaly": 266.0616,
        "meta_ephemeris_type": 0,
        "meta_classification_type": "U",
        "meta_norad_cat_id": 28376,
        "meta_element_set_no": 999,
        "meta_rev_at_epoch": 13860,
        "meta_bstar": 0.00035005,
        "meta_mean_motion_dot": 1.667e-05,
        "meta_mean_motion_ddot": 0,
        "tle_line1": "1 28376U 04026A   25344.11871780  .00001667  00000+0  35005-3 0  9994",
        "tle_line2": "2 28376  98.3182 294.3332 0001196  94.0720 266.0616 14.60936441138607"
      },
      "geometry": {
        "type": "Point",
        "coordinates": [
          137.54345525249101,
          69.35179595385371
        ]
      }
    },
    {
      "type": "Feature",
      "properties": {
        "norad_id": 28649,
        "name": "IRS-P5 (CARTOSAT-1)",
        "group": "resource",
        "lat": 79.69490515234918,
        "lon": -35.84260495871609,
        "alt_km": 588.579650376063,
        "timestamp": "2025-12-10T11:33:53.047701+00:00",
        "meta_object_name": "IRS-P5 (CARTOSAT-1)",
        "meta_object_id": "2005-017A",
        "meta_epoch": "2025-12-09T19:04:50.908224",
        "meta_mean_motion": 14.90389909,
        "meta_eccentricity": 0.0001402,
        "meta_inclination": 97.5497,
        "meta_ra_of_asc_node": 10.3388,
        "meta_arg_of_pericenter": 46.4373,
        "meta_mean_anomaly": 313.6962,
        "meta_ephemeris_type": 0,
        "meta_classification_type": "U",
        "meta_norad_cat_id": 28649,
        "meta_element_set_no": 999,
        "meta_rev_at_epoch": 11560,
        "meta_bstar": 0.00025861,
        "meta_mean_motion_dot": 2.466e-05,
        "meta_mean_motion_ddot": 0,
        "tle_line1": "1 28649U 05017A   25343.79503366  .00002466  00000+0  25861-3 0  9990",
        "tle_line2": "2 28649  97.5497  10.3388 0001402  46.4373 313.6962 14.90389909115604"
      },
      "geometry": {
        "type": "Point",
        "coordinates": [
          -35.84260495871609,
          79.69490515234918
        ]
      }
    },
    {
      "type": "Feature",
      "properties": {
        "norad_id": 28893,
        "name": "SINAH 1",
        "group": "resource",
        "lat": -67.63200239372385,
        "lon": 133.70444224005647,
        "alt_km": 696.6991800698188,
        "timestamp": "2025-12-10T11:33:53.047712+00:00",
        "meta_object_name": "SINAH 1",
        "meta_object_id": "2005-043D",
        "meta_epoch": "2025-12-10T03:40:45.044832",
        "meta_mean_motion": 14.63957816,
        "meta_eccentricity": 0.0015214,
        "meta_inclination": 98.2601,
        "meta_ra_of_asc_node": 112.7036,
        "meta_arg_of_pericenter": 144.6624,
        "meta_mean_anomaly": 215.5589,
        "meta_ephemeris_type": 0,
        "meta_classification_type": "U",
        "meta_norad_cat_id": 28893,
        "meta_element_set_no": 999,
        "meta_rev_at_epoch": 7286,
        "meta_bstar": 0.00016041,
        "meta_mean_motion_dot": 7.92e-06,
        "meta_mean_motion_ddot": 0,
        "tle_line1": "1 28893U 05043D   25344.15329913  .00000792  00000+0  16041-3 0  9995",
        "tle_line2": "2 28893  98.2601 112.7036 0015214 144.6624 215.5589 14.63957816 72866"
      },
      "geometry": {
        "type": "Point",
        "coordinates": [
          133.70444224005647,
          -67.63200239372385
        ]
      }
    },
    {
      "type": "Feature",
      "properties": {
        "norad_id": 29079,
        "name": "EROS B",
        "group": "resource",
        "lat": 2.4673350850963085,
        "lon": -78.73218338645142,
        "alt_km": 369.7824301397477,
        "timestamp": "2025-12-10T11:33:53.047722+00:00",
        "meta_object_name": "EROS B",
        "meta_object_id": "2006-014A",
        "meta_epoch": "2025-12-10T04:40:50.286144",
        "meta_mean_motion": 15.67203604,
        "meta_eccentricity": 0.0001723,
        "meta_inclination": 97.3477,
        "meta_ra_of_asc_node": 100.6492,
        "meta_arg_of_pericenter": 287.2793,
        "meta_mean_anomaly": 72.8279,
        "meta_ephemeris_type": 0,
        "meta_classification_type": "U",
        "meta_norad_cat_id": 29079,
        "meta_element_set_no": 999,
        "meta_rev_at_epoch": 9040,
        "meta_bstar": 0.0018788,
        "meta_mean_motion_dot": 0.00205722,
        "meta_mean_motion_ddot": 0,
        "tle_line1": "1 29079U 06014A   25344.19502646  .00205722  00000+0  18788-2 0  9990",
        "tle_line2": "2 29079  97.3477 100.6492 0001723 287.2793  72.8279 15.67203604 90401"
      },
      "geometry": {
        "type": "Point",
        "coordinates": [
          -78.73218338645142,
          2.4673350850963085
        ]
      }
    },
    {
      "type": "Feature",
      "properties": {
        "norad_id": 29228,
        "name": "RESURS-DK 1",
        "group": "resource",
        "lat": 0.9381484868170433,
        "lon": -72.66896846727006,
        "alt_km": 531.2483420662438,
        "timestamp": "2025-12-10T11:33:53.047733+00:00",
        "meta_object_name": "RESURS-DK 1",
        "meta_object_id": "2006-021A",
        "meta_epoch": "2025-12-09T18:53:58.310016",
        "meta_mean_motion": 15.12136626,
        "meta_eccentricity": 0.0007519,
        "meta_inclination": 69.9336,
        "meta_ra_of_asc_node": 109.4675,
        "meta_arg_of_pericenter": 261.958,
        "meta_mean_anomaly": 98.0733,
        "meta_ephemeris_type": 0,
        "meta_classification_type": "U",
        "meta_norad_cat_id": 29228,
        "meta_element_set_no": 999,
        "meta_rev_at_epoch": 7393,
        "meta_bstar": 0.00027732,
        "meta_mean_motion_dot": 4.688e-05,
        "meta_mean_motion_ddot": 0,
        "tle_line1": "1 29228U 06021A   25343.78748044  .00004688  00000+0  27732-3 0  9990",
        "tle_line2": "2 29228  69.9336 109.4675 0007519 261.9580  98.0733 15.12136626 73931"
      },
      "geometry": {
        "type": "Point",
        "coordinates": [
          -72.66896846727006,
          0.9381484868170433
        ]
      }
    }
  ]
}